H1 CPF 01  gfz 2021 08 21 12  7332 terrasarx 
H2 0702601  6201 31698    2021 08 21 12 59 42 2021 08 26 00 00 42   120 1 1  0 0 0
H9
10 0 59448  59742.000000  0   -5568709.385  -1665293.233  -3705690.718
10 0 59448  59862.000000  0   -5109546.896  -1333895.318  -4431276.077
10 0 59448  59982.000000  0   -4555587.792   -988160.897  -5079237.376
10 0 59448  60102.000000  0   -3916368.631   -635698.114  -5638319.314
10 0 59448  60222.000000  0   -3203012.529   -284037.266  -6098838.342
10 0 59448  60342.000000  0   -2428028.202     59525.540  -6452838.887
10 0 59448  60462.000000  0   -1605086.946    388074.667  -6694219.114
10 0 59448  60582.000000  0    -748781.204    695208.565  -6818825.150
10 0 59448  60702.000000  0     125630.017    975160.597  -6824514.191
10 0 59448  60822.000000  0    1002485.739   1222903.681  -6711186.840
10 0 59448  60942.000000  0    1865996.801   1434237.988  -6480791.437
10 0 59448  61062.000000  0    2700524.901   1605861.785  -6137294.291
10 0 59448  61182.000000  0    3490861.648   1735422.601  -5686617.889
10 0 59448  61302.000000  0    4222502.447   1821548.288  -5136548.126
10 0 59448  61422.000000  0    4881914.018   1863858.531  -4496612.096
10 0 59448  61542.000000  0    5456790.230   1862955.790  -3777923.474
10 0 59448  61662.000000  0    5936289.139   1820395.052  -2992998.356
10 0 59448  61782.000000  0    6311247.887   1738633.267  -2155544.611
10 0 59448  61902.000000  0    6574370.158   1620959.614  -1280224.888
10 0 59448  62022.000000  0    6720379.066   1471406.856   -382398.279
10 0 59448  62142.000000  0    6746131.847   1294645.705    522154.662
10 0 59448  62262.000000  0    6650690.926   1095865.847   1417515.872
10 0 59448  62382.000000  0    6435354.246    880645.952   2287917.850
10 0 59448  62502.000000  0    6103638.277    654814.880   3118031.397
10 0 59448  62622.000000  0    5661216.473    424309.160   3893242.757
10 0 59448  62742.000000  0    5115813.761    195029.924   4599916.439
10 0 59448  62862.000000  0    4477062.856    -27295.866   5225636.228
10 0 59448  62982.000000  0    3756324.022   -237249.262   5759424.006
10 0 59448  63102.000000  0    2966472.472   -429842.564   6191927.890
10 0 59448  63222.000000  0    2121661.348   -600629.730   6515580.299
10 0 59448  63342.000000  0    1237063.666   -745803.098   6724724.896
10 0 59448  63462.000000  0     328596.038   -862274.386   6815710.688
10 0 59448  63582.000000  0    -587369.160   -947737.834   6786950.542
10 0 59448  63702.000000  0   -1494297.938  -1000715.345   6638946.222
10 0 59448  63822.000000  0   -2375791.644  -1020582.019   6374279.558
10 0 59448  63942.000000  0   -3215881.578  -1007571.839   5997570.457
10 0 59448  64062.000000  0   -3999319.533   -962763.796   5515403.275
10 0 59448  64182.000000  0   -4711859.484   -888049.600   4936218.523
10 0 59448  64302.000000  0   -5340523.819   -786082.327   4270170.488
10 0 59448  64422.000000  0   -5873847.988   -660206.960   3528952.728
10 0 59448  64542.000000  0   -6302098.084   -514374.289   2725594.955
10 0 59448  64662.000000  0   -6617458.881   -353039.993   1874234.995
10 0 59448  64782.000000  0   -6814187.005   -181050.877    989866.172
10 0 59448  64902.000000  0   -6888722.446     -3521.973     88066.159
10 0 59448  65022.000000  0   -6839756.375    174293.246   -815286.030
10 0 59448  65142.000000  0   -6668252.974    347136.243  -1704299.031
10 0 59448  65262.000000  0   -6377425.307    509876.126  -2563355.765
10 0 59448  65382.000000  0   -5972669.051    657638.931  -3377394.403
10 0 59448  65502.000000  0   -5461450.281    785930.456  -4132177.732
10 0 59448  65622.000000  0   -4853154.199    890749.191  -4814541.240
10 0 59448  65742.000000  0   -4158899.777    968686.483  -5412618.344
10 0 59448  65862.000000  0   -3391325.385   1017012.038  -5916038.410
10 0 59448  65982.000000  0   -2564350.550   1033742.634  -6316096.046
10 0 59448  66102.000000  0   -1692919.753   1017693.586  -6605889.834
10 0 59448  66222.000000  0    -792731.535    968513.155  -6780430.438
10 0 59448  66342.000000  0     120040.656    886697.816  -6836715.827
10 0 59448  66462.000000  0    1029031.075    773589.280  -6773777.316
10 0 59448  66582.000000  0    1917968.429    631352.792  -6592697.069
10 0 59448  66702.000000  0    2770961.518    462937.126  -6296591.165
10 0 59448  66822.000000  0    3572778.556    272017.332  -5890561.577
10 0 59448  66942.000000  0    4309116.237     62919.701  -5381616.323
10 0 59448  67062.000000  0    4966855.141   -159468.940  -4778560.092
10 0 59448  67182.000000  0    5534299.556   -389806.389  -4091853.621
10 0 59448  67302.000000  0    6001393.790   -622413.346  -3333441.581
10 0 59448  67422.000000  0    6359911.166   -851402.375  -2516552.786
10 0 59448  67542.000000  0    6603611.819  -1070815.139  -1655473.942
10 0 59448  67662.000000  0    6728363.779  -1274763.887   -765299.883
10 0 59448  67782.000000  0    6732223.435  -1457574.260    138334.083
10 0 59448  67902.000000  0    6615473.782  -1613925.851   1039532.903
10 0 59448  68022.000000  0    6380617.035  -1738986.871   1922429.910
10 0 59448  68142.000000  0    6032323.064  -1828539.546   2771475.206
10 0 59448  68262.000000  0    5577333.190  -1879091.640   3571718.526
10 0 59448  68382.000000  0    5024322.614  -1887972.849   4309078.384
10 0 59448  68502.000000  0    4383726.221  -1853412.825   4970592.600
10 0 59448  68622.000000  0    3667533.453  -1774598.754   5544646.659
10 0 59448  68742.000000  0    2889054.726  -1651712.596   6021176.513
10 0 59448  68862.000000  0    2062665.861  -1485946.460   6391839.577
10 0 59448  68982.000000  0    1203537.684  -1279496.737   6650155.031
10 0 59448  69102.000000  0     327353.787  -1035536.272   6791611.523
10 0 59448  69222.000000  0    -549977.145   -758164.985   6813740.262
10 0 59448  69342.000000  0   -1412609.145   -452340.778   6716154.351
10 0 59448  69462.000000  0   -2245043.639   -123791.208   6500555.049
10 0 59448  69582.000000  0   -3032406.644    221093.058   6170704.518
10 0 59448  69702.000000  0   -3760715.327    575381.096   5732365.343
10 0 59448  69822.000000  0   -4417130.085    931738.727   5193206.097
10 0 59448  69942.000000  0   -4990186.800   1282577.827   4562673.226
10 0 59448  70062.000000  0   -5470005.169   1620215.582   3851830.526
10 0 59448  70182.000000  0   -5848467.364   1937039.633   3073167.770
10 0 59448  70302.000000  0   -6119364.031   2225675.896   2240382.474
10 0 59448  70422.000000  0   -6278504.687   2479155.194   1368137.401
10 0 59448  70542.000000  0   -6323788.792   2691074.945    471796.816
10 0 59448  70662.000000  0   -6255233.663   2855750.793   -432852.205
10 0 59448  70782.000000  0   -6074959.980   2968354.481  -1329886.663
10 0 59448  70902.000000  0   -5787134.674   3025034.500  -2203536.710
10 0 59448  71022.000000  0   -5397872.529   3023016.915  -3038471.493
10 0 59448  71142.000000  0   -4915098.845   2960682.524  -3820073.263
10 0 59448  71262.000000  0   -4348378.728   2837619.976  -4534694.561
10 0 59448  71382.000000  0   -3708717.583   2654653.477  -5169893.440
10 0 59448  71502.000000  0   -3008338.565   2413845.136  -5714642.527
10 0 59448  71622.000000  0   -2260443.957   2118473.395  -6159510.621
10 0 59448  71742.000000  0   -1478962.495   1772987.135  -6496816.055
10 0 59448  71862.000000  0    -678289.455   1382936.591  -6720746.730
10 0 59448  71982.000000  0     126974.817    954883.493  -6827449.899
10 0 59448  72102.000000  0     922284.487    496292.047  -6815090.903
10 0 59448  72222.000000  0    1693405.268     15401.515  -6683883.370
10 0 59448  72342.000000  0    2426663.960   -478918.676  -6436084.762
10 0 59448  72462.000000  0    3109185.704   -977327.943  -6075962.106
10 0 59448  72582.000000  0    3729117.768  -1470186.224  -5609725.536
10 0 59448  72702.000000  0    4275835.416  -1947735.671  -5045432.349
10 0 59448  72822.000000  0    4740128.611  -2400291.819  -4392859.244
10 0 59448  72942.000000  0    5114363.439  -2818438.547  -3663343.285
10 0 59448  73062.000000  0    5392616.225  -3193223.222  -2869594.135
10 0 59448  73182.000000  0    5570777.302  -3516348.084  -2025478.228
10 0 59448  73302.000000  0    5646619.894  -3780353.017  -1145778.368
10 0 59448  73422.000000  0    5619832.800  -3978785.905   -245933.502
10 0 59448  73542.000000  0    5492015.060  -4106355.196    658237.216
10 0 59448  73662.000000  0    5266631.815  -4159061.488   1550820.305
10 0 59448  73782.000000  0    4948931.484  -4134303.077   2416097.672
10 0 59448  73902.000000  0    4545826.737  -4030951.588   3238831.851
10 0 59448  74022.000000  0    4065743.743  -3849398.137   4004540.687
10 0 59448  74142.000000  0    3518443.147  -3591569.122   4699757.419
10 0 59448  74262.000000  0    2914815.289  -3260909.693   5312269.828
10 0 59448  74382.000000  0    2266658.293  -2862336.125   5831333.183
10 0 59448  74502.000000  0    1586442.262  -2402159.049   6247855.450
10 0 59448  74622.000000  0     887065.328  -1887979.735   6554550.395
10 0 59448  74742.000000  0     181606.969  -1328561.467   6746058.949
10 0 59448  74862.000000  0    -516917.002   -733678.001   6819037.206
10 0 59448  74982.000000  0   -1195793.615   -113941.745   6772210.523
10 0 59448  75102.000000  0   -1842843.042    519385.159   6606394.378
10 0 59448  75222.000000  0   -2446636.358   1154594.828   6324481.166
10 0 59448  75342.000000  0   -2996697.729   1779749.031   5931393.090
10 0 59448  75462.000000  0   -3483687.861   2382902.976   5434002.102
10 0 59448  75582.000000  0   -3899566.695   2952334.749   4841016.535
10 0 59448  75702.000000  0   -4237731.112   3476775.372   4162834.017
10 0 59448  75822.000000  0   -4493125.648   3945634.980   3411363.734
10 0 59448  75942.000000  0   -4662323.148   4349220.570   2599819.159
10 0 59448  76062.000000  0   -4743572.231   4678940.946   1742484.836
10 0 59448  76182.000000  0   -4736810.771   4927492.599    854460.505
99
